{"type": "FeatureCollection", "features": [ {"type": "Feature", "properties": {"norad_id": 31820, "name": "FENGYUN 1C DEB", "group": "fengyun-1c-debris", "lat": -64.76387049966004, "lon": -179.12005151354742, "alt_km": 557.4612210950099, "timestamp": "2025-12-15T22:44:29.212351+00:00", "meta": {"OBJECT_NAME": "FENGYUN 1C DEB", "OBJECT_ID": "1999-025CHJ", "EPOCH": "2025-12-14T06:48:02.724768", "MEAN_MOTION": 14.92248615, "ECCENTRICITY": 0.01499158, "INCLINATION": 98.9596, "RA_OF_ASC_NODE": 159.4322, "ARG_OF_PERICENTER": 7.0482, "MEAN_ANOMALY": 353.2793, "EPHEMERIS_TYPE": 0, "CLASSIFICATION_TYPE": "U", "NORAD_CAT_ID": 31820, "ELEMENT_SET_NO": 999, "REV_AT_EPOCH": 98279, "BSTAR": 0.0010072449, "MEAN_MOTION_DOT": 0.00012716, "MEAN_MOTION_DDOT": 0}, "tle": {"line1": "1 31820U 99025CHJ 25348.28336487  .00012716  00000+0  10072-2 0  9990", "line2": "2 31820  98.9596 159.4322 0149915   7.0482 353.2793 14.92248615982797"}}, "geometry": {"type": "Point", "coordinates": [-179.12005151354742, -64.76387049966004]}}, {"type": "Feature", "properties": {"norad_id": 31821, "name": "FENGYUN 1C DEB", "group": "fengyun-1c-debris", "lat": 81.39174725326887, "lon": 163.43887563391115, "alt_km": 719.9799126516054, "timestamp": "2025-12-15T22:44:29.212363+00:00", "meta": {"OBJECT_NAME": "FENGYUN 1C DEB", "OBJECT_ID": "1999-025CHK", "EPOCH": "2025-12-14T23:02:16.569600", "MEAN_MOTION": 14.42055651, "ECCENTRICITY": 0.02196132, "INCLINATION": 98.1561, "RA_OF_ASC_NODE": 233.8199, "ARG_OF_PERICENTER": 7.902, "MEAN_ANOMALY": 352.5538, "EPHEMERIS_TYPE": 0, "CLASSIFICATION_TYPE": "U", "NORAD_CAT_ID": 31821, "ELEMENT_SET_NO": 999, "REV_AT_EPOCH": 93693, "BSTAR": 0.0029587891, "MEAN_MOTION_DOT": 0.00012956, "MEAN_MOTION_DDOT": 0}, "tle": {"line1": "1 31821U 99025CHK 25348.95991400  .00012956  00000+0  29588-2 0  9995", "line2": "2 31821  98.1561 233.8199 0219613   7.9020 352.5538 14.42055651936936"}}, "geometry": {"type": "Point", "coordinates": [163.43887563391115, 81.39174725326887]}}, {"type": "Feature", "properties": {"norad_id": 31823, "name": "FENGYUN 1C DEB", "group": "fengyun-1c-debris", "lat": 14.627700219367759, "lon": -100.82655330571487, "alt_km": 656.8029956514592, "timestamp": "2025-12-15T22:44:29.212374+00:00", "meta": {"OBJECT_NAME": "FENGYUN 1C DEB", "OBJECT_ID": "1999-025CHM", "EPOCH": "2025-12-12T23:32:22.819488", "MEAN_MOTION": 14.65703512, "ECCENTRICITY": 0.00371402, "INCLINATION": 99.5108, "RA_OF_ASC_NODE": 73.2356, "ARG_OF_PERICENTER": 218.7256, "MEAN_ANOMALY": 141.1279, "EPHEMERIS_TYPE": 0, "CLASSIFICATION_TYPE": "U", "NORAD_CAT_ID": 31823, "ELEMENT_SET_NO": 999, "REV_AT_EPOCH": 96721, "BSTAR": 0.0021041971, "MEAN_MOTION_DOT": 0.00011525, "MEAN_MOTION_DDOT": 0}, "tle": {"line1": "1 31823U 99025CHM 25346.98081967  .00011525  00000+0  21042-2 0  9994", "line2": "2 31823  99.5108  73.2356 0037140 218.7256 141.1279 14.65703512967217"}}, "geometry": {"type": "Point", "coordinates": [-100.82655330571487, 14.627700219367759]}}, {"type": "Feature", "properties": {"norad_id": 31825, "name": "FENGYUN 1C DEB", "group": "fengyun-1c-debris", "lat": 81.36424619641242, "lon": -94.99391374381943, "alt_km": 870.6205720876751, "timestamp": "2025-12-15T22:44:29.212384+00:00", "meta": {"OBJECT_NAME": "FENGYUN 1C DEB", "OBJECT_ID": "1999-025CHP", "EPOCH": "2025-12-15T05:26:08.942496", "MEAN_MOTION": 14.2165669, "ECCENTRICITY": 0.01654579, "INCLINATION": 98.5906, "RA_OF_ASC_NODE": 348.7626, "ARG_OF_PERICENTER": 331.1142, "MEAN_ANOMALY": 28.0952, "EPHEMERIS_TYPE": 0, "CLASSIFICATION_TYPE": "U", "NORAD_CAT_ID": 31825, "ELEMENT_SET_NO": 999, "REV_AT_EPOCH": 95657, "BSTAR": 0.00063932329, "MEAN_MOTION_DOT": 1.568e-05, "MEAN_MOTION_DDOT": 0}, "tle": {"line1": "1 31825U 99025CHP 25349.22649239  .00001568  00000+0  63932-3 0  9999", "line2": "2 31825  98.5906 348.7626 0165457 331.1142  28.0952 14.21656690956575"}}, "geometry": {"type": "Point", "coordinates": [-94.99391374381943, 81.36424619641242]}}, {"type": "Feature", "properties": {"norad_id": 31826, "name": "FENGYUN 1C DEB", "group": "fengyun-1c-debris", "lat": -72.0540249194344, "lon": 8.939791533391483, "alt_km": 858.3418599176366, "timestamp": "2025-12-15T22:44:29.212394+00:00", "meta": {"OBJECT_NAME": "FENGYUN 1C DEB", "OBJECT_ID": "1999-025CHQ", "EPOCH": "2025-12-13T22:10:25.815360", "MEAN_MOTION": 14.19277046, "ECCENTRICITY": 0.01240082, "INCLINATION": 98.626, "RA_OF_ASC_NODE": 339.0202, "ARG_OF_PERICENTER": 185.8793, "MEAN_ANOMALY": 204.7677, "EPHEMERIS_TYPE": 0, "CLASSIFICATION_TYPE": "U", "NORAD_CAT_ID": 31826, "ELEMENT_SET_NO": 999, "REV_AT_EPOCH": 95831, "BSTAR": 0.00045923419, "MEAN_MOTION_DOT": 9.98e-06, "MEAN_MOTION_DDOT": 0}, "tle": {"line1": "1 31826U 99025CHQ 25347.92390990  .00000998  00000+0  45923-3 0  9998", "line2": "2 31826  98.6260 339.0202 0124008 185.8793 204.7677 14.19277046958318"}}, "geometry": {"type": "Point", "coordinates": [8.939791533391483, -72.0540249194344]}}, {"type": "Feature", "properties": {"norad_id": 31829, "name": "FENGYUN 1C DEB", "group": "fengyun-1c-debris", "lat": 58.98438425199777, "lon": -5.39632466767487, "alt_km": 826.5857510824353, "timestamp": "2025-12-15T22:44:29.212405+00:00", "meta": {"OBJECT_NAME": "FENGYUN 1C DEB", "OBJECT_ID": "1999-025CHT", "EPOCH": "2025-12-14T05:30:48.148416", "MEAN_MOTION": 13.88685413, "ECCENTRICITY": 0.01691868, "INCLINATION": 98.8354, "RA_OF_ASC_NODE": 157.9822, "ARG_OF_PERICENTER": 160.4049, "MEAN_ANOMALY": 17.2682, "EPHEMERIS_TYPE": 0, "CLASSIFICATION_TYPE": "U", "NORAD_CAT_ID": 31829, "ELEMENT_SET_NO": 999, "REV_AT_EPOCH": 94168, "BSTAR": 0.00059255659, "MEAN_MOTION_DOT": 7.6e-06, "MEAN_MOTION_DDOT": 0}, "tle": {"line1": "1 31829U 99025CHT 25348.22972394  .00000760  00000+0  59256-3 0  9990", "line2": "2 31829  98.8354 157.9822 0169186 160.4049  17.2682 13.88685413941682"}}, "geometry": {"type": "Point", "coordinates": [-5.39632466767487, 58.98438425199777]}}, {"type": "Feature", "properties": {"norad_id": 31830, "name": "FENGYUN 1C DEB", "group": "fengyun-1c-debris", "lat": 68.46274624559389, "lon": 71.41335997173758, "alt_km": 1019.3560647188078, "timestamp": "2025-12-15T22:44:29.212415+00:00", "meta": {"OBJECT_NAME": "FENGYUN 1C DEB", "OBJECT_ID": "1999-025CHU", "EPOCH": "2025-12-15T06:54:50.226048", "MEAN_MOTION": 13.8343162, "ECCENTRICITY": 0.01825744, "INCLINATION": 99.1632, "RA_OF_ASC_NODE": 94.9109, "ARG_OF_PERICENTER": 307.6254, "MEAN_ANOMALY": 78.4234, "EPHEMERIS_TYPE": 0, "CLASSIFICATION_TYPE": "U", "NORAD_CAT_ID": 31830, "ELEMENT_SET_NO": 999, "REV_AT_EPOCH": 92775, "BSTAR": 0.0017258986, "MEAN_MOTION_DOT": 2.116e-05, "MEAN_MOTION_DDOT": 0}, "tle": {"line1": "1 31830U 99025CHU 25349.28808132  .00002116  00000+0  17259-2 0  9990", "line2": "2 31830  99.1632  94.9109 0182574 307.6254  78.4234 13.83431620927752"}}, "geometry": {"type": "Point", "coordinates": [71.41335997173758, 68.46274624559389]}}, {"type": "Feature", "properties": {"norad_id": 31834, "name": "FENGYUN 1C DEB", "group": "fengyun-1c-debris", "lat": 79.5011545106608, "lon": 157.3100061829132, "alt_km": 761.2334055531992, "timestamp": "2025-12-15T22:44:29.212425+00:00", "meta": {"OBJECT_NAME": "FENGYUN 1C DEB", "OBJECT_ID": "1999-025CHY", "EPOCH": "2025-12-13T20:43:29.265888", "MEAN_MOTION": 14.03153663, "ECCENTRICITY": 0.01628172, "INCLINATION": 98.3679, "RA_OF_ASC_NODE": 207.9757, "ARG_OF_PERICENTER": 74.4166, "MEAN_ANOMALY": 287.4907, "EPHEMERIS_TYPE": 0, "CLASSIFICATION_TYPE": "U", "NORAD_CAT_ID": 31834, "ELEMENT_SET_NO": 999, "REV_AT_EPOCH": 63726, "BSTAR": 0.00029597728, "MEAN_MOTION_DOT": 4.8e-06, "MEAN_MOTION_DDOT": 0}, "tle": {"line1": "1 31834U 99025CHY 25347.86353317  .00000480  00000+0  29598-3 0  9998", "line2": "2 31834  98.3679 207.9757 0162817  74.4166 287.4907 14.03153663637266"}}, "geometry": {"type": "Point", "coordinates": [157.3100061829132, 79.5011545106608]}}, {"type": "Feature", "properties": {"norad_id": 31837, "name": "FENGYUN 1C DEB", "group": "fengyun-1c-debris", "lat": -1.7819902518667543, "lon": -114.72655536844456, "alt_km": 690.4458283132062, "timestamp": "2025-12-15T22:44:29.212439+00:00", "meta": {"OBJECT_NAME": "FENGYUN 1C DEB", "OBJECT_ID": "1999-025CJB", "EPOCH": "2025-12-13T22:56:35.025216", "MEAN_MOTION": 14.82268062, "ECCENTRICITY": 0.00935726, "INCLINATION": 98.1004, "RA_OF_ASC_NODE": 63.5114, "ARG_OF_PERICENTER": 13.9205, "MEAN_ANOMALY": 346.4555, "EPHEMERIS_TYPE": 0, "CLASSIFICATION_TYPE": "U", "NORAD_CAT_ID": 31837, "ELEMENT_SET_NO": 999, "REV_AT_EPOCH": 98377, "BSTAR": 0.0011611265, "MEAN_MOTION_DOT": 9.957e-05, "MEAN_MOTION_DDOT": 0}, "tle": {"line1": "1 31837U 99025CJB 25347.95596094  .00009957  00000+0  11611-2 0  9996", "line2": "2 31837  98.1004  63.5114 0093572  13.9205 346.4555 14.82268062983777"}}, "geometry": {"type": "Point", "coordinates": [-114.72655536844456, -1.7819902518667543]}}, {"type": "Feature", "properties": {"norad_id": 31838, "name": "FENGYUN 1C DEB", "group": "fengyun-1c-debris", "lat": 77.55529477463419, "lon": -3.4546962914988493, "alt_km": 786.6429565380022, "timestamp": "2025-12-15T22:44:29.212449+00:00", "meta": {"OBJECT_NAME": "FENGYUN 1C DEB", "OBJECT_ID": "1999-025CJC", "EPOCH": "2025-12-14T23:16:41.253888", "MEAN_MOTION": 14.21140952, "ECCENTRICITY": 0.00384069, "INCLINATION": 98.7183, "RA_OF_ASC_NODE": 39.6337, "ARG_OF_PERICENTER": 89.1256, "MEAN_ANOMALY": 33.1339, "EPHEMERIS_TYPE": 0, "CLASSIFICATION_TYPE": "U", "NORAD_CAT_ID": 31838, "ELEMENT_SET_NO": 999, "REV_AT_EPOCH": 64608, "BSTAR": 0.00061312841, "MEAN_MOTION_DOT": 1.299e-05, "MEAN_MOTION_DDOT": 0}, "tle": {"line1": "1 31838U 99025CJC 25348.96992192  .00001299  00000+0  61313-3 0  9994", "line2": "2 31838  98.7183  39.6337 0038406  89.1256  33.1339 14.21140952646089"}}, "geometry": {"type": "Point", "coordinates": [-3.4546962914988493, 77.55529477463419]}}]}